STARLINK-31567          
1 59199U 24045X   26068.43135816 -.00005323  00000+0 -18394-3 0  9993
2 59199  43.0003  93.8497 0000791 244.6072 115.4698 15.27599181113127
FLOCK 4G-14             
1 62667U 25009BL  26068.75869712  .00011310  00000+0  42676-3 0  9993
2 62667  97.4064 151.1836 0003006 318.3639  41.7371 15.27197201 63711
